{
  "type": "FeatureCollection",
  "features": [
    {
      "type": "Feature",
      "properties": { "name": "종로구", "SIG_KOR_NM": "종로구", "code": "1100" },
      "geometry": {
        "type": "Polygon",
        "coordinates": [[[126.96, 37.56], [127.02, 37.56], [127.02, 37.60], [126.96, 37.60], [126.96, 37.56]]]
      }
    },
    {
      "type": "Feature",
      "properties": { "name": "강남구", "SIG_KOR_NM": "강남구", "code": "1105" },
      "geometry": {
        "type": "Polygon",
        "coordinates": [[[127.02, 37.48], [127.08, 37.48], [127.08, 37.53], [127.02, 37.53], [127.02, 37.48]]]
      }
    }
  ]
}
