{
  "type": "FeatureCollection",
  "features": [
    {
      "type": "Feature",
      "properties": {
        "name": "신사동",
        "code": "1168051000",
        "emdnm": "신사동",
        "sggcd": "11680",
        "sggnm": "강남구"
      },
      "geometry": {
        "type": "Polygon",
        "coordinates": [
          [
            [127.02807815323149, 37.519584003369005],
            [127.02862159414981, 37.526612759083314],
            [127.02524305031038, 37.53023679609947],
            [127.02156491849887, 37.535530965877896],
            [127.02092441234515, 37.53511935680614],
            [127.01186811487119, 37.5278410044609],
            [127.01707360242412, 37.52288692862943],
            [127.01944104956044, 37.515987241640666],
            [127.02807815323149, 37.519584003369005]
          ]
        ]
      }
    },
    {
      "type": "Feature",
      "properties": {
        "name": "논현1동",
        "code": "1168052100",
        "emdnm": "논현1동",
        "sggcd": "11680",
        "sggnm": "강남구"
      },
      "geometry": {
        "type": "Polygon",
        "coordinates": [
          [
            [127.03388735284663, 37.50739203132641],
            [127.02807815323149, 37.519584003369005],
            [127.01944104956044, 37.515987241640666],
            [127.02035003921382, 37.510805198905665],
            [127.02137483242679, 37.511029317603565],
            [127.02447004920468, 37.50457187505761],
            [127.03388735284663, 37.50739203132641]
          ]
        ]
      }
    },
    {
      "type": "Feature",
      "properties": {
        "name": "논현2동",
        "code": "1168053100",
        "emdnm": "논현2동",
        "sggcd": "11680",
        "sggnm": "강남구"
      },
      "geometry": {
        "type": "Polygon",
        "coordinates": [
          [
            [127.03917807519049, 37.52290539552294],
            [127.02807815323149, 37.519584003369005],
            [127.03388735284663, 37.50739203132641],
            [127.04376579938786, 37.510263267325946],
            [127.04124171123718, 37.51730376330539],
            [127.03917807519049, 37.52290539552294]
          ]
        ]
      }
    },
    {
      "type": "Feature",
      "properties": {
        "name": "삼성1동",
        "code": "1168058000",
        "emdnm": "삼성1동",
        "sggcd": "11680",
        "sggnm": "강남구"
      },
      "geometry": {
        "type": "Polygon",
        "coordinates": [
          [
            [127.06696185902243, 37.52508139275426],
            [127.06526490616979, 37.52560351988907],
            [127.06154852991367, 37.52172640214491],
            [127.05731363256062, 37.520108443776635],
            [127.05027255604408, 37.51885264518489],
            [127.05669182523995, 37.506855029477634],
            [127.06846314250723, 37.51028434761373],
            [127.06715825743936, 37.519980434804616],
            [127.06696185902243, 37.52508139275426]
          ]
        ]
      }
    },
    {
      "type": "Feature",
      "properties": {
        "name": "삼성2동",
        "code": "1168059000",
        "emdnm": "삼성2동",
        "sggcd": "11680",
        "sggnm": "강남구"
      },
      "geometry": {
        "type": "Polygon",
        "coordinates": [
          [
            [127.05669182523995, 37.506855029477634],
            [127.05027255604408, 37.51885264518489],
            [127.04124171123718, 37.51730376330539],
            [127.04376579938786, 37.510263267325946],
            [127.04776955407246, 37.50659131903346],
            [127.04717823495142, 37.50397402969756],
            [127.04904284899524, 37.50439748322853],
            [127.05669182523995, 37.506855029477634]
          ]
        ]
      }
    },
    {
      "type": "Feature",
      "properties": {
        "name": "대치1동",
        "code": "1168060000",
        "emdnm": "대치1동",
        "sggcd": "11680",
        "sggnm": "강남구"
      },
      "geometry": {
        "type": "Polygon",
        "coordinates": [
          [
            [127.06553001723206, 37.49006958228259],
            [127.06086060326552, 37.49887322207155],
            [127.05567406284534, 37.497219054929026],
            [127.05251024275957, 37.497053881550904],
            [127.05272876535545, 37.49627250169419],
            [127.05655917480364, 37.487681501391386],
            [127.05879891360468, 37.488745581179266],
            [127.06553001723206, 37.49006958228259]
          ]
        ]
      }
    },
    {
      "type": "Feature",
      "properties": {
        "name": "대치4동",
        "code": "1168063000",
        "emdnm": "대치4동",
        "sggcd": "11680",
        "sggnm": "강남구"
      },
      "geometry": {
        "type": "Polygon",
        "coordinates": [
          [
            [127.06086060326552, 37.49887322207155],
            [127.05669182523995, 37.506855029477634],
            [127.04904284899524, 37.50439748322853],
            [127.05251024275957, 37.497053881550904],
            [127.05567406284534, 37.497219054929026],
            [127.06086060326552, 37.49887322207155]
          ]
        ]
      }
    },
    {
      "type": "Feature",
      "properties": {
        "name": "역삼1동",
        "code": "1168064000",
        "emdnm": "역삼1동",
        "sggcd": "11680",
        "sggnm": "강남구"
      },
      "geometry": {
        "type": "Polygon",
        "coordinates": [
          [
            [127.04717823495142, 37.50397402969756],
            [127.04776955407246, 37.50659131903346],
            [127.04376579938786, 37.510263267325946],
            [127.03388735284663, 37.50739203132641],
            [127.02447004920468, 37.50457187505761],
            [127.02449583897226, 37.504518107419756],
            [127.0276351080783, 37.49796430342112],
            [127.03162325752042, 37.48954007672872],
            [127.04088837528562, 37.49241358468067],
            [127.03704419580815, 37.50061643251424],
            [127.04717823495142, 37.50397402969756]
          ]
        ]
      }
    },
    {
      "type": "Feature",
      "properties": {
        "name": "역삼2동",
        "code": "1168065000",
        "emdnm": "역삼2동",
        "sggcd": "11680",
        "sggnm": "강남구"
      },
      "geometry": {
        "type": "Polygon",
        "coordinates": [
          [
            [127.05251024275957, 37.497053881550904],
            [127.04904284899524, 37.50439748322853],
            [127.04717823495142, 37.50397402969756],
            [127.03704419580815, 37.50061643251424],
            [127.04088837528562, 37.49241358468067],
            [127.04669226402522, 37.494305112972256],
            [127.05272876535545, 37.49627250169419],
            [127.05251024275957, 37.497053881550904]
          ]
        ]
      }
    },
    {
      "type": "Feature",
      "properties": {
        "name": "도곡1동",
        "code": "1168065500",
        "emdnm": "도곡1동",
        "sggcd": "11680",
        "sggnm": "강남구"
      },
      "geometry": {
        "type": "Polygon",
        "coordinates": [
          [
            [127.04134584609768, 37.48557052780573],
            [127.0441742926673, 37.485954430544524],
            [127.0498230391722, 37.48838037967024],
            [127.04669226402522, 37.494305112972256],
            [127.04088837528562, 37.49241358468067],
            [127.03162325752042, 37.48954007672872],
            [127.03396794290876, 37.48479724859386],
            [127.04134584609768, 37.48557052780573]
          ]
        ]
      }
    },
    {
      "type": "Feature",
      "properties": {
        "name": "도곡2동",
        "code": "1168065600",
        "emdnm": "도곡2동",
        "sggcd": "11680",
        "sggnm": "강남구"
      },
      "geometry": {
        "type": "Polygon",
        "coordinates": [
          [
            [127.05655917480364, 37.487681501391386],
            [127.05272876535545, 37.49627250169419],
            [127.04669226402522, 37.494305112972256],
            [127.0498230391722, 37.48838037967024],
            [127.0441742926673, 37.485954430544524],
            [127.04134584609768, 37.48557052780573],
            [127.04394218984211, 37.47971047664744],
            [127.05172560013379, 37.48485442651803],
            [127.05652107870976, 37.48766102007492],
            [127.05655917480364, 37.487681501391386]
          ]
        ]
      }
    },
    {
      "type": "Feature",
      "properties": {
        "name": "개포1동",
        "code": "1168066000",
        "emdnm": "개포1동",
        "sggcd": "11680",
        "sggnm": "강남구"
      },
      "geometry": {
        "type": "Polygon",
        "coordinates": [
          [
            [127.07641000744066, 37.48370494677163],
            [127.07552935238809, 37.486199488645546],
            [127.07047597921388, 37.48249369715862],
            [127.06481062936001, 37.4790670353593],
            [127.05800194753463, 37.48481942557484],
            [127.05652107870976, 37.48766102007492],
            [127.05172560013379, 37.48485442651803],
            [127.05377256199675, 37.48109047430336],
            [127.0587388939248, 37.475992207178834],
            [127.06253188783644, 37.472842468948144],
            [127.07265317773916, 37.474799469227484],
            [127.07391320854539, 37.47285819987911],
            [127.07716238772262, 37.47500946525028],
            [127.07437662858621, 37.47626817717369],
            [127.07286125258584, 37.47872791373328],
            [127.07641000744066, 37.48370494677163]
          ]
        ]
      }
    },
    {
      "type": "Feature",
      "properties": {
        "name": "개포4동",
        "code": "1168069000",
        "emdnm": "개포4동",
        "sggcd": "11680",
        "sggnm": "강남구"
      },
      "geometry": {
        "type": "Polygon",
        "coordinates": [
          [
            [127.06253188783644, 37.472842468948144],
            [127.0587388939248, 37.475992207178834],
            [127.05377256199675, 37.48109047430336],
            [127.05172560013379, 37.48485442651803],
            [127.04394218984211, 37.47971047664744],
            [127.04502995335379, 37.47728662504824],
            [127.05105745503269, 37.471491353567096],
            [127.04958058799569, 37.47048749255599],
            [127.05452718675163, 37.46852663178099],
            [127.06161166135016, 37.46895874049018],
            [127.06253188783644, 37.472842468948144]
          ]
        ]
      }
    },
    {
      "type": "Feature",
      "properties": {
        "name": "일원본동",
        "code": "1168072000",
        "emdnm": "일원본동",
        "sggcd": "11680",
        "sggnm": "강남구"
      },
      "geometry": {
        "type": "Polygon",
        "coordinates": [
          [
            [127.09299067519227, 37.47726100304872],
            [127.09310498917361, 37.479530595103974],
            [127.09500853289096, 37.4828282392009],
            [127.09417259947017, 37.48720599432032],
            [127.09074672595787, 37.4913359365121],
            [127.08180481723626, 37.488672401090795],
            [127.07744906376256, 37.48712375233895],
            [127.07641000744066, 37.48370494677163],
            [127.07286125258584, 37.47872791373328],
            [127.07437662858621, 37.47626817717369],
            [127.07716238772262, 37.47500946525028],
            [127.08516182670971, 37.47527333765136],
            [127.09299067519227, 37.47726100304872]
          ]
        ]
      }
    },
    {
      "type": "Feature",
      "properties": {
        "name": "일원1동",
        "code": "1168073000",
        "emdnm": "일원1동",
        "sggcd": "11680",
        "sggnm": "강남구"
      },
      "geometry": {
        "type": "Polygon",
        "coordinates": [
          [
            [127.09674069464802, 37.49583086240225],
            [127.09047000261522, 37.49747324942179],
            [127.07961652011625, 37.49366536235141],
            [127.08180481723626, 37.488672401090795],
            [127.09074672595787, 37.4913359365121],
            [127.10196530636756, 37.49363781211493],
            [127.09674069464802, 37.49583086240225]
          ]
        ]
      }
    },
    {
      "type": "Feature",
      "properties": {
        "name": "개포3동",
        "code": "1168067500",
        "emdnm": "개포3동",
        "sggcd": "11680",
        "sggnm": "강남구"
      },
      "geometry": {
        "type": "Polygon",
        "coordinates": [
          [
            [127.08362899994995, 37.499264463566824],
            [127.07549088855102, 37.50120046540529],
            [127.07407447766144, 37.498863083980254],
            [127.07385123765435, 37.495095718213506],
            [127.07183596835742, 37.493025442318284],
            [127.07277865642598, 37.491311627505915],
            [127.07620849489635, 37.49258941564971],
            [127.07744906376256, 37.48712375233895],
            [127.08180481723626, 37.488672401090795],
            [127.07961652011625, 37.49366536235141],
            [127.09047000261522, 37.49747324942179],
            [127.08362899994995, 37.499264463566824]
          ]
        ]
      }
    },
    {
      "type": "Feature",
      "properties": {
        "name": "수서동",
        "code": "1168075000",
        "emdnm": "수서동",
        "sggcd": "11680",
        "sggnm": "강남구"
      },
      "geometry": {
        "type": "Polygon",
        "coordinates": [
          [
            [127.10813964546388, 37.48930959967124],
            [127.10196530636756, 37.49363781211493],
            [127.09074672595787, 37.4913359365121],
            [127.09417259947017, 37.48720599432032],
            [127.09500853289096, 37.4828282392009],
            [127.09310498917361, 37.479530595103974],
            [127.09299067519227, 37.47726100304872],
            [127.09734284353937, 37.478080509437454],
            [127.0979831192357, 37.48219954217505],
            [127.10262084660158, 37.4849396170418],
            [127.10560290120691, 37.48274136325974],
            [127.11103542064541, 37.48293504402488],
            [127.11227579389464, 37.48353852793635],
            [127.10813964546388, 37.48930959967124]
          ]
        ]
      }
    },
    {
      "type": "Feature",
      "properties": {
        "name": "세곡동",
        "code": "1168070000",
        "emdnm": "세곡동",
        "sggcd": "11680",
        "sggnm": "강남구"
      },
      "geometry": {
        "type": "Polygon",
        "coordinates": [
          [
            [127.11103542064541, 37.48293504402488],
            [127.10560290120691, 37.48274136325974],
            [127.10262084660158, 37.4849396170418],
            [127.0979831192357, 37.48219954217505],
            [127.09734284353937, 37.478080509437454],
            [127.09299067519227, 37.47726100304872],
            [127.08516182670971, 37.47527333765136],
            [127.08449158172867, 37.472872211212454],
            [127.08621166567858, 37.470363479976335],
            [127.0963176312864, 37.461432021370484],
            [127.0982144531008, 37.45879413651465],
            [127.10350183559004, 37.45962547869016],
            [127.10630703065962, 37.462538385867475],
            [127.11202039312181, 37.4615601446767],
            [127.11674713187564, 37.458594296695395],
            [127.11746048978142, 37.46217165665754],
            [127.12229337185815, 37.46521354246407],
            [127.12053781740288, 37.470378382065086],
            [127.11103542064541, 37.48293504402488]
          ]
        ]
      }
    },
    {
      "type": "Feature",
      "properties": {
        "name": "압구정동",
        "code": "1168054500",
        "emdnm": "압구정동",
        "sggcd": "11680",
        "sggnm": "강남구"
      },
      "geometry": {
        "type": "Polygon",
        "coordinates": [
          [
            [127.0466687094521, 37.53399972541588],
            [127.04030826655517, 37.53589720772734],
            [127.03590109303501, 37.535838185636244],
            [127.02156491849887, 37.535530965877896],
            [127.02524305031038, 37.53023679609947],
            [127.02862159414981, 37.526612759083314],
            [127.02807815323149, 37.519584003369005],
            [127.03917807519049, 37.52290539552294],
            [127.04079734568965, 37.52779129908323],
            [127.04379003054346, 37.52705285742561],
            [127.0466687094521, 37.53399972541588]
          ]
        ]
      }
    },
    {
      "type": "Feature",
      "properties": {
        "name": "청담동",
        "code": "1168056500",
        "emdnm": "청담동",
        "sggcd": "11680",
        "sggnm": "강남구"
      },
      "geometry": {
        "type": "Polygon",
        "coordinates": [
          [
            [127.05656656376357, 37.52910117290873],
            [127.04905842559162, 37.53255215318234],
            [127.0466687094521, 37.53399972541588],
            [127.04379003054346, 37.52705285742561],
            [127.04079734568965, 37.52779129908323],
            [127.03917807519049, 37.52290539552294],
            [127.04124171123718, 37.51730376330539],
            [127.05027255604408, 37.51885264518489],
            [127.05731363256062, 37.520108443776635],
            [127.06154852991367, 37.52172640214491],
            [127.06526490616979, 37.52560351988907],
            [127.05656656376357, 37.52910117290873]
          ]
        ]
      }
    },
    {
      "type": "Feature",
      "properties": {
        "name": "대치2동",
        "code": "1168061000",
        "emdnm": "대치2동",
        "sggcd": "11680",
        "sggnm": "강남구"
      },
      "geometry": {
        "type": "Polygon",
        "coordinates": [
          [
            [127.06880349802961, 37.51000278936197],
            [127.06846314250723, 37.51028434761373],
            [127.05669182523995, 37.506855029477634],
            [127.06086060326552, 37.49887322207155],
            [127.06553001723206, 37.49006958228259],
            [127.07183596835742, 37.493025442318284],
            [127.07385123765435, 37.495095718213506],
            [127.07407447766144, 37.498863083980254],
            [127.07549088855102, 37.50120046540529],
            [127.07318132611333, 37.502130611156765],
            [127.06980645000905, 37.50504446572741],
            [127.06880349802961, 37.51000278936197]
          ]
        ]
      }
    },
    {
      "type": "Feature",
      "properties": {
        "name": "개포2동",
        "code": "1168067000",
        "emdnm": "개포2동",
        "sggcd": "11680",
        "sggnm": "강남구"
      },
      "geometry": {
        "type": "Polygon",
        "coordinates": [
          [
            [127.07744906376256, 37.48712375233895],
            [127.07620849489635, 37.49258941564971],
            [127.07277865642598, 37.491311627505915],
            [127.07183596835742, 37.493025442318284],
            [127.06553001723206, 37.49006958228259],
            [127.05879891360468, 37.488745581179266],
            [127.05655917480364, 37.487681501391386],
            [127.05652107870976, 37.48766102007492],
            [127.05800194753463, 37.48481942557484],
            [127.06481062936001, 37.4790670353593],
            [127.07047597921388, 37.48249369715862],
            [127.07552935238809, 37.486199488645546],
            [127.07641000744066, 37.48370494677163],
            [127.07744906376256, 37.48712375233895]
          ]
        ]
      }
    }
  ]
}
